{
  "type": "FeatureCollection",
  "features": [
    {
      "type": "Feature",
      "properties": {
        "norad_id": 66739,
        "name": "FLOCK 4H-36",
        "group": "last-30-days",
        "lat": -0.9423904184153797,
        "lon": -107.75796446226958,
        "alt_km": 513.127223051054,
        "timestamp": "2025-12-26T19:22:37.605406+00:00",
        "meta_object_name": "FLOCK 4H-36",
        "meta_object_id": "2025-276CB",
        "meta_epoch": "2025-12-26T13:50:13.511328",
        "meta_mean_motion": 15.18039614,
        "meta_eccentricity": 0.00027005,
        "meta_inclination": 97.4441,
        "meta_ra_of_asc_node": 72.1382,
        "meta_arg_of_pericenter": 172.4846,
        "meta_mean_anomaly": 187.6429,
        "meta_ephemeris_type": 0,
        "meta_classification_type": "U",
        "meta_norad_cat_id": 66739,
        "meta_element_set_no": 999,
        "meta_rev_at_epoch": 422,
        "meta_bstar": 0.00035460034,
        "meta_mean_motion_dot": 7.153e-05,
        "meta_mean_motion_ddot": 0,
        "tle_line1": "1 66739U 25276CB  25360.57654527  .00007153  00000+0  35460-3 0  9996",
        "tle_line2": "2 66739  97.4441  72.1382 0002700 172.4846 187.6429 15.18039614  4229"
      },
      "geometry": {
        "type": "Point",
        "coordinates": [
          -107.75796446226958,
          -0.9423904184153797
        ]
      }
    },
    {
      "type": "Feature",
      "properties": {
        "norad_id": 66740,
        "name": "TRANSPORTER-15CC",
        "group": "last-30-days",
        "lat": 28.842896208999893,
        "lon": -103.5309203793302,
        "alt_km": 510.65958624952964,
        "timestamp": "2025-12-26T19:22:37.605416+00:00",
        "meta_object_name": "TRANSPORTER-15CC",
        "meta_object_id": "2025-276CC",
        "meta_epoch": "2025-12-26T13:58:04.484640",
        "meta_mean_motion": 15.17768196,
        "meta_eccentricity": 0.00023333,
        "meta_inclination": 97.4404,
        "meta_ra_of_asc_node": 72.1203,
        "meta_arg_of_pericenter": 217.6716,
        "meta_mean_anomaly": 142.4354,
        "meta_ephemeris_type": 0,
        "meta_classification_type": "U",
        "meta_norad_cat_id": 66740,
        "meta_element_set_no": 999,
        "meta_rev_at_epoch": 422,
        "meta_bstar": 0.00040782417,
        "meta_mean_motion_dot": 8.174e-05,
        "meta_mean_motion_ddot": 0,
        "tle_line1": "1 66740U 25276CC  25360.58199635  .00008174  00000+0  40782-3 0  9990",
        "tle_line2": "2 66740  97.4404  72.1203 0002333 217.6716 142.4354 15.17768196  4221"
      },
      "geometry": {
        "type": "Point",
        "coordinates": [
          -103.5309203793302,
          28.842896208999893
        ]
      }
    },
    {
      "type": "Feature",
      "properties": {
        "norad_id": 66741,
        "name": "TRANSPORTER-15CD",
        "group": "last-30-days",
        "lat": 35.490805826549646,
        "lon": -102.32283682664806,
        "alt_km": 510.21253065096244,
        "timestamp": "2025-12-26T19:22:37.605428+00:00",
        "meta_object_name": "TRANSPORTER-15CD",
        "meta_object_id": "2025-276CD",
        "meta_epoch": "2025-12-26T10:49:56.414496",
        "meta_mean_motion": 15.17653296,
        "meta_eccentricity": 0.00012403,
        "meta_inclination": 97.4402,
        "meta_ra_of_asc_node": 71.9806,
        "meta_arg_of_pericenter": 208.7727,
        "meta_mean_anomaly": 151.3438,
        "meta_ephemeris_type": 0,
        "meta_classification_type": "U",
        "meta_norad_cat_id": 66741,
        "meta_element_set_no": 999,
        "meta_rev_at_epoch": 420,
        "meta_bstar": 0.00019391174,
        "meta_mean_motion_dot": 3.837e-05,
        "meta_mean_motion_ddot": 0,
        "tle_line1": "1 66741U 25276CD  25360.45134739  .00003837  00000+0  19391-3 0  9994",
        "tle_line2": "2 66741  97.4402  71.9806 0001240 208.7727 151.3438 15.17653296  4209"
      },
      "geometry": {
        "type": "Point",
        "coordinates": [
          -102.32283682664806,
          35.490805826549646
        ]
      }
    },
    {
      "type": "Feature",
      "properties": {
        "norad_id": 66742,
        "name": "TRANSPORTER-15CE",
        "group": "last-30-days",
        "lat": 26.065598627813454,
        "lon": -104.00330819815487,
        "alt_km": 510.55496717976257,
        "timestamp": "2025-12-26T19:22:37.605438+00:00",
        "meta_object_name": "TRANSPORTER-15CE",
        "meta_object_id": "2025-276CE",
        "meta_epoch": "2025-12-26T13:57:20.308320",
        "meta_mean_motion": 15.17741525,
        "meta_eccentricity": 0.00020045,
        "meta_inclination": 97.4396,
        "meta_ra_of_asc_node": 72.11,
        "meta_arg_of_pericenter": 175.6175,
        "meta_mean_anomaly": 184.5077,
        "meta_ephemeris_type": 0,
        "meta_classification_type": "U",
        "meta_norad_cat_id": 66742,
        "meta_element_set_no": 999,
        "meta_rev_at_epoch": 422,
        "meta_bstar": 0.00031778373,
        "meta_mean_motion_dot": 6.348e-05,
        "meta_mean_motion_ddot": 0,
        "tle_line1": "1 66742U 25276CE  25360.58148505  .00006348  00000+0  31778-3 0  9998",
        "tle_line2": "2 66742  97.4396  72.1100 0002004 175.6175 184.5077 15.17741525  4222"
      },
      "geometry": {
        "type": "Point",
        "coordinates": [
          -104.00330819815487,
          26.065598627813454
        ]
      }
    },
    {
      "type": "Feature",
      "properties": {
        "norad_id": 66743,
        "name": "TRANSPORTER-15CF",
        "group": "last-30-days",
        "lat": 55.65560468502269,
        "lon": 61.264585448571154,
        "alt_km": 541.3799715130763,
        "timestamp": "2025-12-26T19:22:37.605451+00:00",
        "meta_object_name": "TRANSPORTER-15CF",
        "meta_object_id": "2025-276CF",
        "meta_epoch": "2025-12-25T04:50:49.043328",
        "meta_mean_motion": 15.11484429,
        "meta_eccentricity": 0.0034918,
        "meta_inclination": 97.4397,
        "meta_ra_of_asc_node": 70.743,
        "meta_arg_of_pericenter": 109.5161,
        "meta_mean_anomaly": 250.9846,
        "meta_ephemeris_type": 0,
        "meta_classification_type": "U",
        "meta_norad_cat_id": 66743,
        "meta_element_set_no": 999,
        "meta_rev_at_epoch": 401,
        "meta_bstar": -0.23724,
        "meta_mean_motion_dot": -0.03580195,
        "meta_mean_motion_ddot": 0,
        "tle_line1": "1 66743U 25276CF  25359.20195652 -.03580195  00000+0 -23724+0 0  9991",
        "tle_line2": "2 66743  97.4397  70.7430 0034918 109.5161 250.9846 15.11484429  4014"
      },
      "geometry": {
        "type": "Point",
        "coordinates": [
          61.264585448571154,
          55.65560468502269
        ]
      }
    },
    {
      "type": "Feature",
      "properties": {
        "norad_id": 66744,
        "name": "TRANSPORTER-15CG",
        "group": "last-30-days",
        "lat": 19.986188551243227,
        "lon": -104.99744622212636,
        "alt_km": 500.99821046007673,
        "timestamp": "2025-12-26T19:22:37.605461+00:00",
        "meta_object_name": "TRANSPORTER-15CG",
        "meta_object_id": "2025-276CG",
        "meta_epoch": "2025-12-25T03:09:31.796064",
        "meta_mean_motion": 15.19341003,
        "meta_eccentricity": 0.00243198,
        "meta_inclination": 97.3868,
        "meta_ra_of_asc_node": 70.659,
        "meta_arg_of_pericenter": 231.5349,
        "meta_mean_anomaly": 128.3704,
        "meta_ephemeris_type": 0,
        "meta_classification_type": "U",
        "meta_norad_cat_id": 66744,
        "meta_element_set_no": 999,
        "meta_rev_at_epoch": 400,
        "meta_bstar": 0.00064815362,
        "meta_mean_motion_dot": 0.00013749,
        "meta_mean_motion_ddot": 0,
        "tle_line1": "1 66744U 25276CG  25359.13161801  .00013749  00000+0  64815-3 0  9994",
        "tle_line2": "2 66744  97.3868  70.6590 0024319 231.5349 128.3704 15.19341003  4009"
      },
      "geometry": {
        "type": "Point",
        "coordinates": [
          -104.99744622212636,
          19.986188551243227
        ]
      }
    },
    {
      "type": "Feature",
      "properties": {
        "norad_id": 66745,
        "name": "TRANSPORTER-15CH",
        "group": "last-30-days",
        "lat": 51.42576823245562,
        "lon": -98.24442940245025,
        "alt_km": 508.46893582697703,
        "timestamp": "2025-12-26T19:22:37.605471+00:00",
        "meta_object_name": "TRANSPORTER-15CH",
        "meta_object_id": "2025-276CH",
        "meta_epoch": "2025-12-26T10:54:07.685568",
        "meta_mean_motion": 15.17415428,
        "meta_eccentricity": 0.00013433,
        "meta_inclination": 97.4405,
        "meta_ra_of_asc_node": 71.9777,
        "meta_arg_of_pericenter": 188.8102,
        "meta_mean_anomaly": 171.3108,
        "meta_ephemeris_type": 0,
        "meta_classification_type": "U",
        "meta_norad_cat_id": 66745,
        "meta_element_set_no": 999,
        "meta_rev_at_epoch": 420,
        "meta_bstar": 0.00014806455,
        "meta_mean_motion_dot": 2.894e-05,
        "meta_mean_motion_ddot": 0,
        "tle_line1": "1 66745U 25276CH  25360.45425562  .00002894  00000+0  14806-3 0  9993",
        "tle_line2": "2 66745  97.4405  71.9777 0001343 188.8102 171.3108 15.17415428  4201"
      },
      "geometry": {
        "type": "Point",
        "coordinates": [
          -98.24442940245025,
          51.42576823245562
        ]
      }
    }
  ]
}